NORAD_CAT_ID,OBJECT_NAME,OBJECT_TYPE,EPOCH,MEAN_MOTION,ECCENTRICITY,INCLINATION,RA_OF_ASC_NODE,ARG_OF_PERICENTER,MEAN_ANOMALY,BSTAR,MEAN_MOTION_DOT,MEAN_MOTION_DDOT,TLE_LINE0,TLE_LINE1,TLE_LINE2,SEMIMAJOR_AXIS,PERIOD,APOGEE,PERIGEE,DECAYED
55414.0,STARLINK-5620,PAYLOAD,2023-07-19 17:41:33,14.9832444,0.000297,70.0016,354.8325,268.5449,91.537,-9.5046e-05,-1.227e-05,0.0,0 STARLINK-5620,1 55414U 23014Z   23200.73719502 -.00001227  00000-0 -95046-4 0  9992,2 55414  70.0016 354.8325 0002970 268.5449  91.5370 14.98324440 27172,6950.21,96.107,574.139,570.011,0.0
55414.0,STARLINK-5620,PAYLOAD,2023-07-20 12:55:09,14.98329875,0.0003124,70.0012,352.8118,265.9289,94.1513,-3.1567e-06,-1.31e-06,0.0,0 STARLINK-5620,1 55414U 23014Z   23201.53830939 -.00000131  00000-0 -31567-5 0  9991,2 55414  70.0012 352.8118 0003124 265.9289  94.1513 14.98329875 27299,6950.193,96.107,574.23,569.887,0.0
55414.0,STARLINK-5620,PAYLOAD,2023-07-23 14:37:20,14.98332727,0.0003544,70.0006,345.0684,270.5463,89.529,-3.3924e-05,-4.98e-06,0.0,0 STARLINK-5620,1 55414U 23014Z   23204.60926699 -.00000498  00000-0 -33924-4 0  9995,2 55414  70.0006 345.0684 0003544 270.5463  89.5290 14.98332727 27757,6950.184,96.107,574.513,569.586,0.0
55414.0,STARLINK-5620,PAYLOAD,2023-07-25 11:29:06,14.98325549,0.0002894,70.0023,340.3577,260.3323,99.7509,-5.9674e-06,-1.64e-06,0.0,0 STARLINK-5620,1 55414U 23014Z   23206.47854878 -.00000164  00000-0 -59674-5 0  9992,2 55414  70.0023 340.3577 0002894 260.3323  99.7509 14.98325549 28036,6950.207,96.107,574.083,570.06,0.0
55414.0,STARLINK-5620,PAYLOAD,2023-07-26 11:31:07,14.98347455,0.00032,70.0012,337.832,272.6306,87.4487,-0.0002806,-3.441e-05,0.0,0 STARLINK-5620,1 55414U 23014Z   23207.47994764 -.00003441  00000-0 -28060-3 0  9996,2 55414  70.0012 337.8320 0003200 272.6306  87.4487 14.98347455 28185,6950.139,96.106,574.228,569.78,0.0
55414.0,STARLINK-5620,PAYLOAD,2023-07-27 08:20:52,14.9832766,0.000337,70.0012,335.6439,269.4794,90.5979,4.4934e-05,4.43e-06,0.0,0 STARLINK-5620,1 55414U 23014Z   23208.34782456  .00000443  00000-0  44934-4 0  9992,2 55414  70.0012 335.6439 0003370 269.4794  90.5979 14.98327660 28317,6950.2,96.107,574.407,569.723,0.0
55414.0,STARLINK-5620,PAYLOAD,2023-07-27 14:45:24,14.98327012,0.0003557,70.0004,334.9694,269.6058,90.4693,-3.6878e-05,-5.33e-06,0.0,0 STARLINK-5620,1 55414U 23014Z   23208.61486708 -.00000533  00000-0 -36878-4 0  9993,2 55414  70.0004 334.9694 0003557 269.6058  90.4693 14.98327012 28352,6950.202,96.107,574.539,569.595,0.0
55414.0,STARLINK-5620,PAYLOAD,2023-07-27 17:57:40,14.98328742,0.0003551,70.0004,334.6327,269.8142,90.261,-1.6391e-05,-2.89e-06,0.0,0 STARLINK-5620,1 55414U 23014Z   23208.74838560 -.00000289  00000-0 -16391-4 0  9990,2 55414  70.0004 334.6327 0003551 269.8142  90.2610 14.98328742 28372,6950.197,96.107,574.53,569.594,0.0
55414.0,STARLINK-5620,PAYLOAD,2023-07-28 08:22:53,14.983133,0.0003617,70.0002,333.1179,273.2656,86.8089,0.00012421,1.389e-05,0.0,0 STARLINK-5620,1 55414U 23014Z   23209.34923311  .00001389  00000-0  12421-3 0  9995,2 55414  70.0002 333.1179 0003617 273.2656  86.8089 14.98313300 28466,6950.245,96.108,574.623,569.596,0.0
55414.0,STARLINK-5620,PAYLOAD,2023-07-28 14:47:25,14.98329962,0.0003582,70.0002,332.4442,270.1515,89.9234,-2.2909e-05,-3.66e-06,0.0,0 STARLINK-5620,1 55414U 23014Z   23209.61626677 -.00000366  00000-0 -22909-4 0  9999,2 55414  70.0002 332.4442 0003582 270.1515  89.9234 14.98329962 28504,6950.193,96.107,574.548,569.568,0.0
55414.0,STARLINK-5620,PAYLOAD,2023-07-29 18:01:41,14.98338275,0.0003516,70.0003,329.5829,267.3285,92.7471,0.00013555,1.525e-05,0.0,0 STARLINK-5620,1 55414U 23014Z   23210.75117532  .00001525  00000-0  13555-3 0  9993,2 55414  70.0003 329.5829 0003516 267.3285  92.7471 14.98338275 28670,6950.167,96.106,574.476,569.589,0.0
55414.0,STARLINK-5620,PAYLOAD,2023-07-30 10:03:03,14.98326188,0.0003498,70.0002,327.8998,266.7661,93.3098,-4.2421e-06,-1.44e-06,0.0,0 STARLINK-5620,1 55414U 23014Z   23211.41878592 -.00000144  00000-0 -42421-5 0  9991,2 55414  70.0002 327.8998 0003498 266.7661  93.3098 14.98326188 28770,6950.205,96.107,574.501,569.638,0.0
55414.0,STARLINK-5620,PAYLOAD,2023-07-31 10:05:03,14.98332163,0.000346,70.0006,325.3748,268.0705,92.0058,-4.1368e-05,-5.87e-06,0.0,0 STARLINK-5620,1 55414U 23014Z   23212.42018228 -.00000587  00000-0 -41368-4 0  9994,2 55414  70.0006 325.3748 0003460 268.0705  92.0058 14.98332163 28922,6950.186,96.107,574.456,569.646,0.0
55414.0,STARLINK-5620,PAYLOAD,2023-07-31 16:29:34,14.98383847,0.0003655,70.0007,324.7013,266.1409,93.9332,-0.00081141,-9.775e-05,0.0,0 STARLINK-5620,1 55414U 23014Z   23212.68720749 -.00009775  00000-0 -81141-3 0  9990,2 55414  70.0007 324.7013 0003655 266.1409  93.9332 14.98383847 28961,6950.026,96.104,574.432,569.351,0.0
55414.0,STARLINK-5620,PAYLOAD,2023-08-01 10:07:04,14.98328299,0.0003452,70.0006,322.8501,271.8528,88.2235,1.6368e-05,1.02e-06,0.0,0 STARLINK-5620,1 55414U 23014Z   23213.42158115  .00000102  00000-0  16368-4 0  9998,2 55414  70.0006 322.8501 0003452 271.8528  88.2235 14.98328299 29073,6950.198,96.107,574.462,569.664,0.0
55414.0,STARLINK-5620,PAYLOAD,2023-08-02 10:09:05,14.98329941,0.0003315,70.001,320.3259,267.2298,92.8482,-2.076e-05,-3.41e-06,0.0,0 STARLINK-5620,1 55414U 23014Z   23214.42298049 -.00000341  00000-0 -20760-4 0  9998,2 55414  70.0010 320.3259 0003315 267.2298  92.8482 14.98329941 29229,6950.193,96.107,574.362,569.754,0.0
55414.0,STARLINK-5620,PAYLOAD,2023-08-03 10:11:06,14.98330181,0.0003341,70.0009,317.8005,267.0775,93.0002,-9.16e-06,-2.02e-06,0.0,0 STARLINK-5620,1 55414U 23014Z   23215.42437907 -.00000202  00000-0 -91600-5 0  9995,2 55414  70.0009 317.8005 0003341 267.0775  93.0002 14.98330181 29379,6950.192,96.107,574.379,569.735,0.0
55414.0,STARLINK-5620,PAYLOAD,2023-08-04 10:13:07,14.98326197,0.0003339,70.001,315.2757,266.6778,93.3999,-4.0377e-05,-5.75e-06,0.0,0 STARLINK-5620,1 55414U 23014Z   23216.42578225 -.00000575  00000-0 -40377-4 0  9992,2 55414  70.0010 315.2757 0003339 266.6778  93.3999 14.98326197 29529,6950.205,96.107,574.39,569.749,0.0
55414.0,STARLINK-5620,PAYLOAD,2023-08-05 10:15:07,14.98333753,0.000339,70.001,312.7513,264.62,95.4573,3.7748e-05,3.57e-06,0.0,0 STARLINK-5620,1 55414U 23014Z   23217.42717522  .00000357  00000-0  37748-4 0  9992,2 55414  70.0010 312.7513 0003390 264.6200  95.4573 14.98333753 29679,6950.181,96.107,574.402,569.69,0.0
55414.0,STARLINK-5620,PAYLOAD,2023-08-05 16:39:39,14.98340369,0.0003273,70.0012,312.0783,263.0091,97.0696,0.00011307,1.257e-05,0.0,0 STARLINK-5620,1 55414U 23014Z   23217.69420778  .00001257  00000-0  11307-3 0  9997,2 55414  70.0012 312.0783 0003273 263.0091  97.0696 14.98340369 29714,6950.161,96.106,574.301,569.751,0.0
55414.0,STARLINK-5620,PAYLOAD,2023-08-05 23:04:12,14.98336084,0.0003278,70.0012,311.4019,279.7568,80.3221,-3.2578e-06,-1.32e-06,0.0,0 STARLINK-5620,1 55414U 23014Z   23217.96125374 -.00000132  00000-0 -32578-5 0  9999,2 55414  70.0012 311.4019 0003278 279.7568  80.3221 14.98336084 29759,6950.174,96.107,574.317,569.761,0.0
55414.0,STARLINK-5620,PAYLOAD,2023-08-06 10:17:09,14.98320524,0.0003139,70.0014,310.2272,264.7731,95.307,-2.8873e-05,-4.37e-06,0.0,0 STARLINK-5620,1 55414U 23014Z   23218.42858462 -.00000437  00000-0 -28873-4 0  9992,2 55414  70.0014 310.2272 0003139 264.7731  95.3070 14.98320524 29829,6950.222,96.108,574.269,569.906,0.0
55414.0,STARLINK-5620,PAYLOAD,2023-08-07 08:43:02,14.98336208,0.0003468,70.0007,307.8711,266.9957,93.0806,-6.4451e-05,-8.62e-06,0.0,0 STARLINK-5620,1 55414U 23014Z   23219.36321876 -.00000862  00000-0 -64451-4 0  9994,2 55414  70.0007 307.8711 0003468 266.9957  93.0806 14.98336208 29963,6950.174,96.107,574.449,569.628,0.0
55414.0,STARLINK-5620,PAYLOAD,2023-08-07 23:08:14,14.98347342,0.0003584,70.0008,306.3557,248.1463,111.9315,-0.00026708,-3.28e-05,0.0,0 STARLINK-5620,1 55414U 23014Z   23219.96405280 -.00003280  00000-0 -26708-3 0  9991,2 55414  70.0008 306.3557 0003584 248.1463 111.9315 14.98347342 30057,6950.139,96.106,574.495,569.513,0.0
55414.0,STARLINK-5620,PAYLOAD,2023-08-08 15:09:35,14.98329203,0.0003593,70.0002,304.672,270.6808,89.3939,0.00011548,1.285e-05,0.0,0 STARLINK-5620,1 55414U 23014Z   23220.63165686  .00001285  00000-0  11548-3 0  9997,2 55414  70.0002 304.6720 0003593 270.6808  89.3939 14.98329203 30154,6950.195,96.107,574.558,569.563,0.0
55414.0,STARLINK-5620,PAYLOAD,2023-08-09 10:23:12,14.98324575,0.0003685,70.0005,302.6528,268.7345,91.3392,-5.4735e-05,-7.46e-06,0.0,0 STARLINK-5620,1 55414U 23014Z   23221.43278569 -.00000746  00000-0 -54735-4 0  9990,2 55414  70.0005 302.6528 0003685 268.7345  91.3392 14.98324575 30273,6950.21,96.107,574.636,569.514,0.0
55414.0,STARLINK-5620,PAYLOAD,2023-08-10 04:00:40,14.98330782,0.0003804,69.9997,300.7999,268.3236,91.7487,2.445e-05,1.99e-06,0.0,0 STARLINK-5620,1 55414U 23014Z   23222.16713901  .00000199  00000-0  24450-4 0  9996,2 55414  69.9997 300.7999 0003804 268.3236  91.7487 14.98330782 30387,6950.19,96.107,574.699,569.412,0.0
55414.0,STARLINK-5620,PAYLOAD,2023-08-10 15:13:36,14.98340369,0.0003831,69.9997,299.6215,268.2788,91.7932,4.6255e-05,4.59e-06,0.0,0 STARLINK-5620,1 55414U 23014Z   23222.63445098  .00000459  00000-0  46255-4 0  9993,2 55414  69.9997 299.6215 0003831 268.2788  91.7932 14.98340369 30450,6950.161,96.106,574.688,569.363,0.0
55414.0,STARLINK-5620,PAYLOAD,2023-08-11 10:27:14,14.98325107,0.0003796,69.9997,297.6023,266.7961,93.2764,5.0746e-05,5.12e-06,0.0,0 STARLINK-5620,1 55414U 23014Z   23223.43557920  .00000512  00000-0  50746-4 0  9990,2 55414  69.9997 297.6023 0003796 266.7961  93.2764 14.98325107 30577,6950.208,96.107,574.711,569.435,0.0
55414.0,STARLINK-5620,PAYLOAD,2023-08-12 10:29:15,14.98320755,0.0003839,69.9996,295.0771,266.7673,93.3047,0.00012579,1.408e-05,0.0,0 STARLINK-5620,1 55414U 23014Z   23224.43697948  .00001408  00000-0  12579-3 0  9992,2 55414  69.9996 295.0771 0003839 266.7673  93.3047 14.98320755 30722,6950.221,96.108,574.755,569.418,0.0
